NORAD_CAT_ID,OBJECT_NAME,OBJECT_TYPE,EPOCH,MEAN_MOTION,ECCENTRICITY,INCLINATION,RA_OF_ASC_NODE,ARG_OF_PERICENTER,MEAN_ANOMALY,BSTAR,MEAN_MOTION_DOT,MEAN_MOTION_DDOT,TLE_LINE0,TLE_LINE1,TLE_LINE2,SEMIMAJOR_AXIS,PERIOD,APOGEE,PERIGEE,DECAYED
51813.0,STARLINK-3552,PAYLOAD,2024-07-10 15:50:51,15.08838616,0.0001385,53.2163,174.2115,90.0443,270.0708,2.7091e-05,1.43e-06,0.0,0 STARLINK-3552,1 51813U 22017AX  24192.66031334  .00000143  00000-0  27091-4 0  9995,2 51813  53.2163 174.2115 0001385  90.0443 270.0708 15.08838616132442,6917.885,95.438,540.708,538.791,0.0
51813.0,STARLINK-3552,PAYLOAD,2024-07-11 07:44:42,15.08838009,0.0001417,53.2162,171.2375,87.1757,272.9398,4.7825e-05,4.73e-06,0.0,0 STARLINK-3552,1 51813U 22017AX  24193.32271512  .00000473  00000-0  47825-4 0  9996,2 51813  53.2162 171.2375 0001417  87.1757 272.9398 15.08838009132540,6917.886,95.438,540.732,538.771,0.0
51813.0,STARLINK-3552,PAYLOAD,2024-07-12 07:35:29,15.08841956,0.0001433,53.2162,166.7766,89.7771,270.3385,7.2886e-05,8.72e-06,0.0,0 STARLINK-3552,1 51813U 22017AX  24194.31631250  .00000872  00000-0  72886-4 0  9993,2 51813  53.2162 166.7766 0001433  89.7771 270.3385 15.08841956132694,6917.874,95.437,540.731,538.748,0.0
51813.0,STARLINK-3552,PAYLOAD,2024-07-12 15:32:24,15.08844855,0.0001431,53.2164,165.2901,89.2951,270.8205,6.9317e-05,8.16e-06,0.0,0 STARLINK-3552,1 51813U 22017AX  24194.64751040  .00000816  00000-0  69317-4 0  9992,2 51813  53.2164 165.2901 0001431  89.2951 270.8205 15.08844855132859,6917.866,95.437,540.72,538.741,0.0
51813.0,STARLINK-3552,PAYLOAD,2024-07-13 04:15:30,15.08839015,0.00014,53.2162,162.9102,97.3185,262.7967,1.4334e-05,-6e-07,0.0,0 STARLINK-3552,1 51813U 22017AX  24195.17743555 -.00000060  00000-0  14334-4 0  9994,2 51813  53.2162 162.9102 0001400  97.3185 262.7967 15.08839015132935,6917.883,95.438,540.717,538.78,0.0
51813.0,STARLINK-3552,PAYLOAD,2024-07-13 15:23:11,15.08846108,0.0001399,53.2168,160.8277,100.402,259.713,6.8644e-05,8.05e-06,0.0,0 STARLINK-3552,1 51813U 22017AX  24195.64110822  .00000805  00000-0  68644-4 0  9990,2 51813  53.2168 160.8277 0001399 100.4020 259.7130 15.08846108133000,6917.862,95.437,540.695,538.759,0.0
51813.0,STARLINK-3552,PAYLOAD,2024-07-13 21:44:44,15.08843655,0.0001635,53.2185,159.637,107.2294,252.8877,-5.793e-06,-3.8e-06,0.0,0 STARLINK-3552,1 51813U 22017AX  24195.90607258 -.00000380  00000-0 -57930-5 0  9990,2 51813  53.2185 159.6370 0001635 107.2294 252.8877 15.08843655132937,6917.869,95.437,540.865,538.603,0.0
51813.0,STARLINK-3552,PAYLOAD,2024-07-14 04:06:17,15.0884088,0.000145,53.2165,158.4503,94.0797,266.0361,-1.3942e-05,-5.1e-06,0.0,0 STARLINK-3552,1 51813U 22017AX  24196.17103426 -.00000510  00000-0 -13942-4 0  9997,2 51813  53.2165 158.4503 0001450  94.0797 266.0361 15.08840880133085,6917.878,95.437,540.746,538.74,0.0
51813.0,STARLINK-3552,PAYLOAD,2024-07-15 03:57:05,15.08824887,0.0001466,53.2179,153.9888,107.0588,253.0565,-9.7125e-05,-1.833e-05,0.0,0 STARLINK-3552,1 51813U 22017AX  24197.16464515 -.00001833  00000-0 -97125-4 0  9990,2 51813  53.2179 153.9888 0001466 107.0588 253.0565 15.08824887133234,6917.927,95.439,540.806,538.777,0.0
51813.0,STARLINK-3552,PAYLOAD,2024-07-15 07:07:51,15.08827066,0.0001335,53.2179,153.3961,104.0783,256.0358,-0.00011928,-2.185e-05,0.0,0 STARLINK-3552,1 51813U 22017AX  24197.29712601 -.00002185  00000-0 -11928-3 0  9993,2 51813  53.2179 153.3961 0001335 104.0783 256.0358 15.08827066133144,6917.92,95.438,540.708,538.861,0.0
51813.0,STARLINK-3552,PAYLOAD,2024-07-15 21:26:19,15.08826324,0.0001181,53.217,150.7214,96.3115,263.8012,-5.7692e-06,-3.8e-06,0.0,0 STARLINK-3552,1 51813U 22017AX  24197.89328560 -.00000380  00000-0 -57692-5 0  9991,2 51813  53.2170 150.7214 0001181  96.3115 263.8012 15.08826324133237,6917.922,95.438,540.604,538.97,0.0
51813.0,STARLINK-3552,PAYLOAD,2024-07-16 03:47:51,15.08840051,0.0001228,53.2169,149.531,102.2676,257.8454,9.1067e-05,1.162e-05,0.0,0 STARLINK-3552,1 51813U 22017AX  24198.15823484  .00001162  00000-0  91067-4 0  9996,2 51813  53.2169 149.5310 0001228 102.2676 257.8454 15.08840051133381,6917.88,95.438,540.595,538.896,0.0
51813.0,STARLINK-3552,PAYLOAD,2024-07-16 06:58:37,15.08845469,0.0001244,53.2165,148.935,101.6039,258.5093,0.00011067,1.474e-05,0.0,0 STARLINK-3552,1 51813U 22017AX  24198.29071099  .00001474  00000-0  11067-3 0  9995,2 51813  53.2165 148.9350 0001244 101.6039 258.5093 15.08845469133293,6917.864,95.437,540.589,538.868,0.0
51813.0,STARLINK-3552,PAYLOAD,2024-07-17 03:38:38,15.0882948,0.000172,53.2189,145.0768,121.0019,239.1142,0.00015062,2.109e-05,0.0,0 STARLINK-3552,1 51813U 22017AX  24199.15184012  .00002109  00000-0  15062-3 0  9996,2 51813  53.2189 145.0768 0001720 121.0019 239.1142 15.08829480133535,6917.913,95.438,540.967,538.588,0.0
51813.0,STARLINK-3552,PAYLOAD,2024-07-17 06:49:24,15.08837197,0.0001364,53.2179,144.4757,106.4224,253.6919,0.0002015,2.92e-05,0.0,0 STARLINK-3552,1 51813U 22017AX  24199.28431370  .00002920  00000-0  20150-3 0  9997,2 51813  53.2179 144.4757 0001364 106.4224 253.6919 15.08837197133553,6917.889,95.438,540.698,538.81,0.0
51813.0,STARLINK-3552,PAYLOAD,2024-07-17 13:10:56,15.08848639,0.000124,53.2184,143.2856,95.0818,265.0315,0.00030077,4.503e-05,0.0,0 STARLINK-3552,1 51813U 22017AX  24199.54926540  .00004503  00000-0  30077-3 0  9992,2 51813  53.2184 143.2856 0001240  95.0818 265.0315 15.08848639133483,6917.854,95.437,540.577,538.861,0.0
51813.0,STARLINK-3552,PAYLOAD,2024-07-18 03:29:27,15.08830529,0.0001499,53.2184,140.6108,97.7275,262.3887,-0.00010725,-1.994e-05,0.0,0 STARLINK-3552,1 51813U 22017AX  24200.14545189 -.00001994  00000-0 -10725-3 0  9998,2 51813  53.2184 140.6108 0001499  97.7275 262.3887 15.08830529133681,6917.909,95.438,540.811,538.737,0.0
51813.0,STARLINK-3552,PAYLOAD,2024-07-18 13:01:44,15.08852942,9.6e-05,53.2184,138.8275,104.2094,255.9005,1.7105e-05,-1.5e-07,0.0,0 STARLINK-3552,1 51813U 22017AX  24200.54287181 -.00000015  00000-0  17105-4 0  9999,2 51813  53.2184 138.8275 0000960 104.2094 255.9005 15.08852942133638,6917.841,95.437,540.37,539.042,0.0
51813.0,STARLINK-3552,PAYLOAD,2024-07-19 03:20:14,15.08831642,0.0001394,53.217,136.1476,81.5325,278.5825,-7.6678e-05,-1.508e-05,0.0,0 STARLINK-3552,1 51813U 22017AX  24201.13905379 -.00001508  00000-0 -76678-4 0  9990,2 51813  53.2170 136.1476 0001394  81.5325 278.5825 15.08831642133830,6917.906,95.438,540.735,538.807,0.0
51813.0,STARLINK-3552,PAYLOAD,2024-07-19 12:52:31,15.08850117,0.0001397,53.2175,134.3625,74.9199,285.1947,9.5091e-05,1.226e-05,0.0,0 STARLINK-3552,1 51813U 22017AX  24201.53647694  .00001226  00000-0  95091-4 0  9992,2 51813  53.2175 134.3625 0001397  74.9199 285.1947 15.08850117133892,6917.849,95.437,540.681,538.748,0.0
51813.0,STARLINK-3552,PAYLOAD,2024-07-20 04:46:23,15.08840249,0.0001285,53.2168,131.3849,85.6967,274.4172,0.00020203,2.929e-05,0.0,0 STARLINK-3552,1 51813U 22017AX  24202.19888529  .00002929  00000-0  20203-3 0  9992,2 51813  53.2168 131.3849 0001285  85.6967 274.4172 15.08840249133994,6917.88,95.438,540.634,538.856,0.0
51813.0,STARLINK-3552,PAYLOAD,2024-07-20 12:43:19,15.08850513,0.0001488,53.2179,129.902,95.167,264.9492,0.0002971,4.445e-05,0.0,0 STARLINK-3552,1 51813U 22017AX  24202.53008135  .00004445  00000-0  29710-3 0  9994,2 51813  53.2179 129.9020 0001488  95.1670 264.9492 15.08850513133930,6917.848,95.437,540.743,538.684,0.0
51813.0,STARLINK-3552,PAYLOAD,2024-07-21 01:26:24,15.08833587,0.0001473,53.2183,127.5215,104.5004,255.6151,0.00014862,2.078e-05,0.0,0 STARLINK-3552,1 51813U 22017AX  24203.06001131  .00002078  00000-0  14862-3 0  9994,2 51813  53.2183 127.5215 0001473 104.5004 255.6151 15.08833587134128,6917.9,95.438,540.784,538.746,0.0
51813.0,STARLINK-3552,PAYLOAD,2024-07-21 22:06:25,15.08835982,0.0001432,53.2149,123.6568,109.0336,251.0811,9.4862e-05,1.222e-05,0.0,0 STARLINK-3552,1 51813U 22017AX  24203.92113111  .00001222  00000-0  94862-4 0  9990,2 51813  53.2149 123.6568 0001432 109.0336 251.0811 15.08835982134147,6917.893,95.438,540.748,538.767,0.0
51813.0,STARLINK-3552,PAYLOAD,2024-07-21 23:41:48,15.08834763,0.0001462,53.2158,123.3583,110.848,249.2669,8.6607e-05,1.09e-05,0.0,0 STARLINK-3552,1 51813U 22017AX  24203.98737265  .00001090  00000-0  86607-4 0  9999,2 51813  53.2158 123.3583 0001462 110.8480 249.2669 15.08834763134151,6917.896,95.438,540.773,538.75,0.0
51813.0,STARLINK-3552,PAYLOAD,2024-07-22 18:46:26,15.08846731,0.0001416,53.2158,119.7909,107.0636,253.0511,0.00028548,4.259e-05,0.0,0 STARLINK-3552,1 51813U 22017AX  24204.78224798  .00004259  00000-0  28548-3 0  9999,2 51813  53.2158 119.7909 0001416 107.0636 253.0511 15.08846731134384,6917.86,95.437,540.704,538.745,0.0
51813.0,STARLINK-3552,PAYLOAD,2024-07-22 21:57:12,15.08849909,0.0001203,53.2157,119.2013,108.0609,252.0514,0.00039691,6.036e-05,0.0,0 STARLINK-3552,1 51813U 22017AX  24204.91472673  .00006036  00000-0  39691-3 0  9997,2 51813  53.2157 119.2013 0001203 108.0609 252.0514 15.08849909134291,6917.85,95.437,540.547,538.883,0.0
51813.0,STARLINK-3552,PAYLOAD,2024-07-23 01:07:58,15.08863013,0.0001406,53.2162,118.6034,107.1665,252.9481,0.00057482,8.878e-05,0.0,0 STARLINK-3552,1 51813U 22017AX  24205.04720254  .00008878  00000-0  57482-3 0  9997,2 51813  53.2162 118.6034 0001406 107.1665 252.9481 15.08863013134429,6917.81,95.436,540.648,538.702,0.0
51813.0,STARLINK-3552,PAYLOAD,2024-07-23 18:37:12,15.08854608,0.0001367,53.2161,115.3365,98.5008,261.614,0.00029444,4.403e-05,0.0,0 STARLINK-3552,1 51813U 22017AX  24205.77584316  .00004403  00000-0  29444-3 0  9991,2 51813  53.2161 115.3365 0001367  98.5008 261.6140 15.08854608134530,6917.836,95.437,540.646,538.755,0.0
51813.0,STARLINK-3552,PAYLOAD,2024-07-24 04:09:32,15.08828866,9.44e-05,53.215,113.5486,81.9481,278.1618,-0.0002812,-4.759e-05,0.0,0 STARLINK-3552,1 51813U 22017AX  24206.17328827 -.00004759  00000-0 -28120-3 0  9995,2 51813  53.2150 113.5486 0000944  81.9481 278.1618 15.08828866134599,6917.914,95.438,540.432,539.126,0.0
